GLOBALSTAR M084         
1 38040U 11080A   23321.09776580 -.00000085  00000+0  10696-3 0  9996
2 38040  52.0033   8.3904 0000399 149.6764 227.3554 12.62267715549940
GLOBALSTAR M080         
1 38041U 11080B   23321.15078201 -.00000084  00000+0  10975-3 0  9998
2 38041  52.0085   9.6324 0000609 151.5094 226.6127 12.62266172549933
GLOBALSTAR M082         
1 38042U 11080C   23320.80188427 -.00000092  00000+0  68425-4 0  9995
2 38042  52.0089 326.0787 0000827  24.0208 149.1046 12.62268020550452
GLOBALSTAR M092         
1 38043U 11080D   23320.69430484 -.00000098  00000+0  34749-4 0  9994
2 38043  52.0099  56.7473 0000523 155.8360   8.8528 12.62262639548899
GLOBALSTAR M090         
1 38044U 11080E   23320.74851184 -.00000091  00000+0  70852-4 0  9993
2 38044  51.9898 320.7939 0000604  46.8790 124.4043 12.62263523550569
GLOBALSTAR M086         
1 38045U 11080F   23321.29465683 -.00000084  00000+0  10856-3 0  9999
2 38045  51.9909 319.6385 0001226 103.3079 269.9235 12.62264380550688
GLOBALSTAR M097         
1 39072U 13005A   23321.15983822 -.00000075  00000+0  16325-3 0  9991
2 39072  52.0045 234.0079 0001141  65.7730 294.3256 12.62272631497899
GLOBALSTAR M093         
1 39073U 13005B   23321.13336351 -.00000067  00000+0  20568-3 0  9994
2 39073  51.9809 228.3171 0001403  68.2259 291.8757 12.62268952497888
